[{"OBJECT_NAME":"VIZARD-METEO (RS38S)","OBJECT_ID":"2023-091Z","EPOCH":"2026-03-09T23:01:09.168960","MEAN_MOTION":15.32764799,"ECCENTRICITY":0.00087615,"INCLINATION":97.5192,"RA_OF_ASC_NODE":136.6522,"ARG_OF_PERICENTER":71.7666,"MEAN_ANOMALY":288.4529,"EPHEMERIS_TYPE":0,"CLASSIFICATION_TYPE":"U","NORAD_CAT_ID":57189,"ELEMENT_SET_NO":999,"REV_AT_EPOCH":14947,"BSTAR":0.00066106249,"MEAN_MOTION_DOT":0.00020895,"MEAN_MOTION_DDOT":0},{"OBJECT_NAME":"STARLINK-32125","OBJECT_ID":"2024-131F","EPOCH":"2026-03-09T05:38:26.914272","MEAN_MOTION":15.301873,"ECCENTRICITY":0.00012418,"INCLINATION":53.1613,"RA_OF_ASC_NODE":54.2172,"ARG_OF_PERICENTER":79.5558,"MEAN_ANOMALY":280.5582,"EPHEMERIS_TYPE":0,"CLASSIFICATION_TYPE":"U","NORAD_CAT_ID":60260,"ELEMENT_SET_NO":999,"REV_AT_EPOCH":9165,"BSTAR":-5.809984e-6,"MEAN_MOTION_DOT":-5.31e-6,"MEAN_MOTION_DDOT":0}]
